NORAD_CAT_ID,OBJECT_NAME,OBJECT_TYPE,EPOCH,MEAN_MOTION,ECCENTRICITY,INCLINATION,RA_OF_ASC_NODE,ARG_OF_PERICENTER,MEAN_ANOMALY,BSTAR,MEAN_MOTION_DOT,MEAN_MOTION_DDOT,TLE_LINE0,TLE_LINE1,TLE_LINE2,SEMIMAJOR_AXIS,PERIOD,APOGEE,PERIGEE,DECAYED
53913.0,STARLINK-5053,PAYLOAD,2023-07-31 13:05:21,15.08861908,0.0001255,53.2156,268.4443,108.2667,251.8462,0.00057975,8.956e-05,0.0,0 STARLINK-5053,1 53913U 22119AD  23212.54538710  .00008956  00000-0  57975-3 0  9993,2 53913  53.2156 268.4443 0001255 108.2667 251.8462 15.08861908 47666,6917.813,95.436,540.547,538.81,0.0
53913.0,STARLINK-5053,PAYLOAD,2023-07-31 21:02:17,15.08852453,0.0001555,53.2148,266.9595,77.5017,282.6149,0.00030982,4.648e-05,0.0,0 STARLINK-5053,1 53913U 22119AD  23212.87659159  .00004648  00000-0  30982-3 0  9993,2 53913  53.2148 266.9595 0001555  77.5017 282.6149 15.08852453 47713,6917.842,95.437,540.783,538.632,0.0
53913.0,STARLINK-5053,PAYLOAD,2023-08-01 09:45:22,15.08845897,0.0001125,53.2147,264.5807,107.9626,252.1489,0.00012306,1.672e-05,0.0,0 STARLINK-5053,1 53913U 22119AD  23213.40651133  .00001672  00000-0  12306-3 0  9991,2 53913  53.2147 264.5807 0001125 107.9626 252.1489 15.08845897 47790,6917.862,95.437,540.506,538.949,0.0
53913.0,STARLINK-5053,PAYLOAD,2023-08-02 09:36:09,15.08843901,0.0001282,53.2147,260.119,80.4377,279.676,0.00016196,2.291e-05,0.0,0 STARLINK-5053,1 53913U 22119AD  23214.40011486  .00002291  00000-0  16196-3 0  9992,2 53913  53.2147 260.1190 0001282  80.4377 279.6760 15.08843901 47946,6917.868,95.437,540.62,538.847,0.0
53913.0,STARLINK-5053,PAYLOAD,2023-08-03 09:26:57,15.08843323,0.0001292,53.2152,255.6585,83.5374,276.5766,0.00022539,3.301e-05,0.0,0 STARLINK-5053,1 53913U 22119AD  23215.39371590  .00003301  00000-0  22539-3 0  9997,2 53913  53.2152 255.6585 0001292  83.5374 276.5766 15.08843323 48098,6917.87,95.437,540.629,538.841,0.0
53913.0,STARLINK-5053,PAYLOAD,2023-08-04 02:56:11,15.08835921,0.0001246,53.2151,252.3877,78.1496,281.9636,2.8563e-05,1.67e-06,0.0,0 STARLINK-5053,1 53913U 22119AD  23216.12236041  .00000167  00000-0  28563-4 0  9991,2 53913  53.2151 252.3877 0001246  78.1496 281.9636 15.08835921 48203,6917.893,95.438,540.62,538.896,0.0
53913.0,STARLINK-5053,PAYLOAD,2023-08-05 07:33:08,15.08843955,0.0001165,53.2147,247.0344,86.9549,273.1576,0.00011249,1.503e-05,0.0,0 STARLINK-5053,1 53913U 22119AD  23217.31467774  .00001503  00000-0  11249-3 0  9999,2 53913  53.2147 247.0344 0001165  86.9549 273.1576 15.08843955 48385,6917.868,95.437,540.539,538.927,0.0
53913.0,STARLINK-5053,PAYLOAD,2023-08-06 01:02:22,15.0883735,0.0001263,53.215,243.7626,97.6817,262.4319,0.00012561,1.712e-05,0.0,0 STARLINK-5053,1 53913U 22119AD  23218.04332117  .00001712  00000-0  12561-3 0  9992,2 53913  53.2150 243.7626 0001263  97.6817 262.4319 15.08837350 48491,6917.888,95.438,540.627,538.88,0.0
53913.0,STARLINK-5053,PAYLOAD,2023-08-07 10:25:29,15.08840205,0.0001186,53.2158,237.5191,91.4444,268.6684,1.4874e-06,-2.64e-06,0.0,0 STARLINK-5053,1 53913U 22119AD  23219.43436498 -.00000264  00000-0  14874-5 0  9996,2 53913  53.2158 237.5191 0001186  91.4444 268.6684 15.08840205 48709,6917.88,95.438,540.565,538.924,0.0
53913.0,STARLINK-5053,PAYLOAD,2023-08-08 18:13:12,15.08836523,0.0001128,53.2157,231.572,90.2118,269.9003,3.7419e-05,3.08e-06,0.0,0 STARLINK-5053,1 53913U 22119AD  23220.75916798  .00000308  00000-0  37419-4 0  9996,2 53913  53.2157 231.5720 0001128  90.2118 269.9003 15.08836523 48900,6917.891,95.438,540.536,538.976,0.0
53913.0,STARLINK-5053,PAYLOAD,2023-08-10 00:25:31,15.08839979,0.0001125,53.2152,225.9215,92.7017,267.4103,4.7372e-05,4.66e-06,0.0,0 STARLINK-5053,1 53913U 22119AD  23222.01772721  .00000466  00000-0  47372-4 0  9997,2 53913  53.2152 225.9215 0001125  92.7017 267.4103 15.08839979 49096,6917.88,95.438,540.524,538.967,0.0
53913.0,STARLINK-5053,PAYLOAD,2023-08-11 09:48:37,15.08843817,0.0001159,53.215,219.6765,92.531,267.5814,7.2205e-05,8.62e-06,0.0,0 STARLINK-5053,1 53913U 22119AD  23223.40876384  .00000862  00000-0  72205-4 0  9994,2 53913  53.2150 219.6765 0001159  92.5310 267.5814 15.08843817 49305,6917.869,95.437,540.536,538.932,0.0
53913.0,STARLINK-5053,PAYLOAD,2023-08-12 00:07:05,15.08839545,0.0001308,53.2143,217.0003,93.7677,266.3465,6.8594e-06,-1.79e-06,0.0,0 STARLINK-5053,1 53913U 22119AD  23224.00492868 -.00000179  00000-0  68594-5 0  9991,2 53913  53.2143 217.0003 0001308  93.7677 266.3465 15.08839545 49390,6917.882,95.438,540.652,538.842,0.0
53913.0,STARLINK-5053,PAYLOAD,2023-08-13 09:30:11,15.08841016,0.000117,53.2158,210.7553,92.4903,267.6223,2.4784e-05,1.07e-06,0.0,0 STARLINK-5053,1 53913U 22119AD  23225.39596741  .00000107  00000-0  24784-4 0  9991,2 53913  53.2158 210.7553 0001170  92.4903 267.6223 15.08841016 49607,6917.877,95.437,540.552,538.933,0.0
53913.0,STARLINK-5053,PAYLOAD,2023-08-13 15:51:44,15.08836528,0.0001176,53.2163,209.5657,90.382,269.7307,-1.6026e-05,-5.43e-06,0.0,0 STARLINK-5053,1 53913U 22119AD  23225.66093144 -.00000543  00000-0 -16026-4 0  9996,2 53913  53.2163 209.5657 0001176  90.3820 269.7307 15.08836528 49647,6917.891,95.438,540.57,538.942,0.0
53913.0,STARLINK-5053,PAYLOAD,2023-08-14 22:04:04,15.08836455,0.0001302,53.2154,203.9162,88.1242,271.99,5.358e-05,5.65e-06,0.0,0 STARLINK-5053,1 53913U 22119AD  23226.91949254  .00000565  00000-0  53580-4 0  9995,2 53913  53.2154 203.9162 0001302  88.1242 271.9900 15.08836455 49834,6917.891,95.438,540.657,538.856,0.0
53913.0,STARLINK-5053,PAYLOAD,2023-08-16 07:27:09,15.08847797,0.0001256,53.2162,197.6715,89.6418,270.4718,9.9039e-05,1.289e-05,0.0,0 STARLINK-5053,1 53913U 22119AD  23228.31052517  .00001289  00000-0  99039-4 0  9991,2 53913  53.2162 197.6715 0001256  89.6418 270.4718 15.08847797 50042,6917.857,95.437,540.59,538.853,0.0
53913.0,STARLINK-5053,PAYLOAD,2023-08-16 15:24:05,15.08841631,0.0001307,53.2162,196.1841,88.5284,271.5858,5.0183e-05,5.11e-06,0.0,0 STARLINK-5053,1 53913U 22119AD  23228.64172985  .00000511  00000-0  50183-4 0  9993,2 53913  53.2162 196.1841 0001307  88.5284 271.5858 15.08841631 50095,6917.875,95.437,540.645,538.836,0.0
53913.0,STARLINK-5053,PAYLOAD,2023-08-18 02:22:34,15.08838504,0.0001337,53.2156,189.6422,94.0988,266.0157,1.1975e-05,-9.7e-07,0.0,0 STARLINK-5053,1 53913U 22119AD  23230.09901295 -.00000097  00000-0  11975-4 0  9995,2 53913  53.2156 189.6422 0001337  94.0988 266.0157 15.08838504 50317,6917.885,95.438,540.675,538.825,0.0
53913.0,STARLINK-5053,PAYLOAD,2023-08-19 03:48:44,15.08845678,0.0001472,53.2169,184.8864,90.5838,269.5322,2.7137e-05,1.44e-06,0.0,0 STARLINK-5053,1 53913U 22119AD  23231.15884963  .00000144  00000-0  27137-4 0  9994,2 53913  53.2169 184.8864 0001472  90.5838 269.5322 15.08845678 50472,6917.863,95.437,540.746,538.71,0.0
53913.0,STARLINK-5053,PAYLOAD,2023-08-20 02:04:09,15.08831744,0.0001516,53.2186,180.7246,97.7259,262.3905,5.5487e-05,5.95e-06,0.0,0 STARLINK-5053,1 53913U 22119AD  23232.08622017  .00000595  00000-0  55487-4 0  9996,2 53913  53.2186 180.7246 0001516  97.7259 262.3905 15.08831744 50618,6917.906,95.438,540.819,538.722,0.0
53913.0,STARLINK-5053,PAYLOAD,2023-08-21 01:54:55,15.08843718,0.0001697,53.2192,176.2648,110.611,249.5065,8.5423e-05,1.072e-05,0.0,0 STARLINK-5053,1 53913U 22119AD  23233.07981341  .00001072  00000-0  85423-4 0  9998,2 53913  53.2192 176.2648 0001697 110.6110 249.5065 15.08843718 50766,6917.869,95.437,540.908,538.56,0.0
53913.0,STARLINK-5053,PAYLOAD,2023-08-21 19:24:11,15.08836946,0.0001617,53.2169,172.9868,103.2987,256.8185,-4.5887e-05,-1.018e-05,0.0,0 STARLINK-5053,1 53913U 22119AD  23233.80846370 -.00001018  00000-0 -45887-4 0  9993,2 53913  53.2169 172.9868 0001617 103.2987 256.8185 15.08836946 50870,6917.89,95.438,540.873,538.636,0.0
53913.0,STARLINK-5053,PAYLOAD,2023-08-23 01:36:30,15.08841325,0.0001486,53.2168,167.34,105.2944,254.8213,-4.6476e-05,-1.028e-05,0.0,0 STARLINK-5053,1 53913U 22119AD  23235.06702466 -.00001028  00000-0 -46476-4 0  9996,2 53913  53.2168 167.3400 0001486 105.2944 254.8213 15.08841325 51067,6917.876,95.437,540.769,538.713,0.0
53913.0,STARLINK-5053,PAYLOAD,2023-08-24 04:38:04,15.08841613,0.0001347,53.2172,162.2844,84.9697,275.1449,0.00010926,1.451e-05,0.0,0 STARLINK-5053,1 53913U 22119AD  23236.19310358  .00001451  00000-0  10926-3 0  9994,2 53913  53.2172 162.2844 0001347  84.9697 275.1449 15.08841613 51654,6917.875,95.437,540.672,538.809,0.0
53913.0,STARLINK-5053,PAYLOAD,2023-08-25 01:18:04,15.08848801,0.000154,53.2173,158.4189,81.1876,278.9291,0.00014153,1.966e-05,0.0,0 STARLINK-5053,1 53913U 22119AD  23237.05421871  .00001966  00000-0  14153-3 0  9990,2 53913  53.2173 158.4189 0001540  81.1876 278.9291 15.08848801 51783,6917.853,95.437,540.784,538.653,0.0
53913.0,STARLINK-5053,PAYLOAD,2023-08-25 18:47:19,15.08845789,0.0001567,53.2167,155.1488,78.6647,281.4522,6.6007e-05,7.63e-06,0.0,0 STARLINK-5053,1 53913U 22119AD  23237.78286109  .00000763  00000-0  66007-4 0  9993,2 53913  53.2167 155.1488 0001567  78.6647 281.4522 15.08845789 51472,6917.863,95.437,540.812,538.644,0.0
53913.0,STARLINK-5053,PAYLOAD,2023-08-26 04:19:37,15.08849409,0.0001424,53.2164,153.3634,104.5902,255.5248,1.9186e-05,1.7e-07,0.0,0 STARLINK-5053,1 53913U 22119AD  23238.18029660  .00000017  00000-0  19186-4 0  9993,2 53913  53.2164 153.3634 0001424 104.5902 255.5248 15.08849409 51950,6917.852,95.437,540.702,538.732,0.0
53913.0,STARLINK-5053,PAYLOAD,2023-08-27 02:35:01,15.08841197,0.0001392,53.2168,149.2002,87.9679,272.1472,2.7634e-05,1.52e-06,0.0,0 STARLINK-5053,1 53913U 22119AD  23239.10766143  .00000152  00000-0  27634-4 0  9997,2 53913  53.2168 149.2002 0001392  87.9679 272.1472 15.08841197 51675,6917.877,95.437,540.705,538.779,0.0
53913.0,STARLINK-5053,PAYLOAD,2023-08-27 23:15:03,15.08836998,0.0001319,53.2176,145.3344,68.5626,291.5507,-2.0575e-05,-6.15e-06,0.0,0 STARLINK-5053,1 53913U 22119AD  23239.96878751 -.00000615  00000-0 -20575-4 0  9993,2 53913  53.2176 145.3344 0001319  68.5626 291.5507 15.08836998 51808,6917.89,95.438,540.667,538.842,0.0
